{
    "links": {
        "self": "http://www.neowsapp.com/rest/v1/neo/3943320?api_key=iIulBulltgU6a56xZRHN4H3l9WmuAYTsLGpBGhQ2"
    },
    "id": "3943320",
    "neo_reference_id": "3943320",
    "name": "(2019 YU)",
    "designation": "2019 YU",
    "nasa_jpl_url": "http://ssd.jpl.nasa.gov/sbdb.cgi?sstr=3943320",
    "absolute_magnitude_h": 23.2,
    "estimated_diameter": {
        "kilometers": {
            "estimated_diameter_min": 0.0608912622,
            "estimated_diameter_max": 0.1361570015
        },
        "meters": {
            "estimated_diameter_min": 60.8912622106,
            "estimated_diameter_max": 136.1570015386
        },
        "miles": {
            "estimated_diameter_min": 0.0378360645,
            "estimated_diameter_max": 0.0846040122
        },
        "feet": {
            "estimated_diameter_min": 199.7744887109,
            "estimated_diameter_max": 446.7093369279
        }
    },
    "is_potentially_hazardous_asteroid": false,
    "close_approach_data": [
        {
            "close_approach_date": "1963-07-03",
            "close_approach_date_full": "1963-Jul-03 15:20",
            "epoch_date_close_approach": -205058400000,
            "relative_velocity": {
                "kilometers_per_second": "21.2594466976",
                "kilometers_per_hour": "76534.008111373",
                "miles_per_hour": "47555.2563178695"
            },
            "miss_distance": {
                "astronomical": "0.1149604643",
                "lunar": "44.7196206127",
                "kilometers": "17197840.593491041",
                "miles": "10686242.6171407258"
            },
            "orbiting_body": "Earth"
        },
        {
            "close_approach_date": "1999-11-20",
            "close_approach_date_full": "1999-Nov-20 12:55",
            "epoch_date_close_approach": 943102500000,
            "relative_velocity": {
                "kilometers_per_second": "20.8867899128",
                "kilometers_per_hour": "75192.4436861578",
                "miles_per_hour": "46721.6603559906"
            },
            "miss_distance": {
                "astronomical": "0.1114528877",
                "lunar": "43.3551733153",
                "kilometers": "16673114.605269199",
                "miles": "10360193.0071809862"
            },
            "orbiting_body": "Venus"
        },
        {
            "close_approach_date": "2019-12-24",
            "close_approach_date_full": "2019-Dec-24 20:14",
            "epoch_date_close_approach": 1577218440000,
            "relative_velocity": {
                "kilometers_per_second": "16.3725450033",
                "kilometers_per_hour": "58941.1620119718",
                "miles_per_hour": "36623.7459179388"
            },
            "miss_distance": {
                "astronomical": "0.0499318484",
                "lunar": "19.4234890276",
                "kilometers": "7469698.165802908",
                "miles": "4641455.2130918104"
            },
            "orbiting_body": "Earth"
        }
    ],
    "orbital_data": {
        "orbit_id": "5",
        "orbit_determination_date": "2019-12-29 07:26:34",
        "first_observation_date": "2019-12-19",
        "last_observation_date": "2019-12-25",
        "data_arc_in_days": 6,
        "observations_used": 55,
        "orbit_uncertainty": "8",
        "minimum_orbit_intersection": ".00704314",
        "jupiter_tisserand_invariant": "4.336",
        "epoch_osculation": "2458838.5",
        "eccentricity": ".5943027692582944",
        "semi_major_axis": "1.498502969745058",
        "inclination": ".4780014657957072",
        "ascending_node_longitude": "152.1969087239593",
        "orbital_period": "670.0154832305527",
        "perihelion_distance": ".607938505083792",
        "perihelion_argument": "28.77012384732528",
        "aphelion_distance": "2.389067434406325",
        "perihelion_time": "2458892.393199540409",
        "mean_anomaly": "331.0431291214338",
        "mean_motion": ".5373010161858062",
        "equinox": "J2000",
        "orbit_class": {
            "orbit_class_type": "APO",
            "orbit_class_description": "Near-Earth asteroid orbits which cross the Earth’s orbit similar to that of 1862 Apollo",
            "orbit_class_range": "a (semi-major axis) > 1.0 AU; q (perihelion) < 1.017 AU"
        }
    },
    "is_sentry_object": false
}